OBJECT_NAME,OBJECT_ID,EPOCH,MEAN_MOTION,ECCENTRICITY,INCLINATION,RA_OF_ASC_NODE,ARG_OF_PERICENTER,MEAN_ANOMALY,EPHEMERIS_TYPE,CLASSIFICATION_TYPE,NORAD_CAT_ID,ELEMENT_SET_NO,REV_AT_EPOCH,BSTAR,MEAN_MOTION_DOT,MEAN_MOTION_DDOT
SHUNTIAN,2019-093H,2026-05-13T04:54:35.356032,14.94981053,.0011871,97.7996,221.5501,173.4091,186.7288,0,U,44886,999,34695,.19916E-3,.2121E-4,0
ELEKTRO-L 3,2019-095A,2026-05-13T01:12:50.123232,1.00271714,.0001241,0.1650,79.0829,331.5024,274.4004,0,U,44903,999,2335,0,-.83E-6,0
GONETS-M 14,2019-096A,2026-05-13T04:37:04.336320,12.42868742,.0012196,82.5199,106.3357,226.8793,133.1267,0,U,44905,999,28933,-.16716E-3,-.13E-6,0
GONETS-M 15,2019-096B,2026-05-13T05:19:28.112160,12.42869999,.001393,82.5218,106.7734,251.9374,108.0188,0,U,44906,999,28930,-.11534E-3,-.6E-7,0
GONETS-M 16,2019-096C,2026-05-13T04:02:10.846176,12.42890907,.0009899,82.5164,105.7755,299.5417,60.4675,0,U,44907,999,28928,.44655E-3,.72E-6,0
RS-44 & BREEZE-KM R/B,2019-096E,2026-05-13T01:23:31.682112,12.79748097,.0216673,82.5231,3.0518,226.3468,131.9492,0,U,44909,999,29785,.10535E-4,.13E-6,0
JILIN-1 KUANFU 01,2020-003A,2026-05-13T04:16:52.049280,15.10519108,.001118,97.5037,207.8206,67.4296,292.8116,0,U,45016,999,35004,.10926E-3,.1739E-4,0
XINGYUN-2 01,2020-028A,2026-05-13T04:37:51.390624,15.11654353,.0008426,97.4863,126.2937,335.3051,24.7775,0,U,45602,999,32955,.10526E-3,.1727E-4,0
XINGYUN-2 02,2020-028B,2026-05-13T05:33:35.183808,15.11389770,.0012124,97.5081,139.8417,38.9884,321.2218,0,U,45603,999,32955,.10088E-3,.1641E-4,0
HAIYANG-1D,2020-036A,2026-05-13T03:49:28.303104,14.34162280,.0001477,98.4535,75.6036,248.5065,111.5963,0,U,45721,999,30995,.16632E-3,.423E-5,0
M2 PATHFINDER,2020-037E,2026-05-12T23:58:17.483808,15.04519478,.0010104,97.8165,323.8372,272.1142,87.8927,0,U,45727,999,32020,.12229E-3,.165E-4,0
GAOFEN DUOMO (GFDM),2020-042A,2026-05-13T04:18:04.127616,14.76827811,.0010851,97.7768,194.3351,178.6641,181.4600,0,U,45856,999,31584,-.14144E-4,-.148E-5,0
ZIYUAN 3-03 (ZY 3-03),2020-051A,2026-05-13T04:39:39.319776,15.21477808,.0007088,97.2852,202.0463,77.3172,282.8856,0,U,45939,999,32202,.14793E-3,.326E-4,0
NEMO-HD,2020-061F,2026-05-13T03:18:00.260064,15.43870748,.0002345,97.1945,195.4595,123.0450,237.1024,0,U,46277,999,31657,.1594E-3,.7147E-4,0
NAPA-1,2020-061BA,2026-05-13T04:51:08.322624,15.63679975,.0001777,97.2492,206.3511,142.2354,217.9030,0,U,46320,999,31626,.44712E-3,.41646E-3,0
JILIN-1 GAOFEN 3E,2020-065D,2026-05-13T04:03:20.572704,15.59749768,.0009666,97.2296,185.0693,285.5254,74.4935,0,U,46457,999,31429,.40024E-3,.32056E-3,0
JILIN-1 GAOFEN 3F,2020-065E,2026-05-13T03:20:39.748416,15.57560133,.0011238,97.2251,182.5263,273.4901,86.5069,0,U,46458,999,31424,.43316E-3,.31978E-3,0
JILIN-1 GAOFEN 3G,2020-065F,2026-05-13T04:16:07.097088,15.65509458,.0012347,97.2325,188.8547,171.1766,188.9714,0,U,46459,999,31445,.45973E-3,.46232E-3,0
JILIN-1 GAOFEN 3H,2020-065G,2026-05-13T02:02:24.717120,15.63048600,.0009135,97.2271,185.2694,118.9115,241.3061,0,U,46460,999,31439,.46755E-3,.4258E-3,0
HAIYANG-2C,2020-066A,2026-05-13T04:12:08.184672,13.83372233,.0010187,65.9977,302.4568,240.5051,119.5002,0,U,46469,999,28465,.12328E-3,.55E-6,0
HJ-2A,2020-067A,2026-05-13T04:45:08.237664,14.76566611,.0004158,97.8825,212.3944,39.3722,320.7790,0,U,46478,999,30309,.7961E-4,.506E-5,0
HJ-2B,2020-067B,2026-05-13T03:59:34.271232,14.76509188,.0001338,97.8887,213.3593,73.6666,286.4691,0,U,46479,999,30309,-.25087E-4,-.224E-5,0
GONETS-M 17,2020-068A,2026-05-13T02:41:43.869120,12.42871245,.0023257,82.5020,9.3244,110.3273,250.0308,0,U,46486,999,25480,-.10499E-2,-.135E-5,0
GONETS-M 18,2020-068B,2026-05-13T03:45:18.556128,12.42870839,.0020607,82.4973,8.4283,106.4983,253.8362,0,U,46487,999,25479,-.15002E-3,-.11E-6,0
GONETS-M 19,2020-068C,2026-05-13T03:10:39.988992,12.42890925,.0014163,82.4998,8.8872,120.1031,240.1454,0,U,46488,999,25489,-.2451E-3,-.24E-6,0
DEKART,2020-068H,2026-05-13T04:17:59.232192,15.36518705,.0010599,97.8754,139.9658,57.9204,302.3066,0,U,46493,999,31039,.23807E-3,.8409E-4,0
NORBI,2020-068J,2026-05-13T04:16:49.123776,15.46935863,.0007558,97.8648,146.1002,42.3520,317.8310,0,U,46494,999,31079,.3049E-3,.15283E-3,0
