SHUNTIAN                
1 44886U 19093H   26133.20457588  .00002121  00000+0  19916-3 0  9990
2 44886  97.7996 221.5501 0011871 173.4091 186.7288 14.94981053346959
ELEKTRO-L 3             
1 44903U 19095A   26133.05058013 -.00000083  00000+0  00000+0 0  9991
2 44903   0.1650  79.0829 0001241 331.5024 274.4004  1.00271714 23352
GONETS-M 14             
1 44905U 19096A   26133.19241130 -.00000013  00000+0 -16716-3 0  9992
2 44905  82.5199 106.3357 0012196 226.8793 133.1267 12.42868742289331
GONETS-M 15             
1 44906U 19096B   26133.22185315 -.00000006  00000+0 -11534-3 0  9994
2 44906  82.5218 106.7734 0013930 251.9374 108.0188 12.42869999289303
GONETS-M 16             
1 44907U 19096C   26133.16818109  .00000072  00000+0  44655-3 0  9993
2 44907  82.5164 105.7755 0009899 299.5417  60.4675 12.42890907289283
RS-44 & BREEZE-KM R/B   
1 44909U 19096E   26133.05800558  .00000013  00000+0  10535-4 0  9998
2 44909  82.5231   3.0518 0216673 226.3468 131.9492 12.79748097297856
JILIN-1 KUANFU 01       
1 45016U 20003A   26133.17838020  .00001739  00000+0  10926-3 0  9995
2 45016  97.5037 207.8206 0011180  67.4296 292.8116 15.10519108350041
XINGYUN-2 01            
1 45602U 20028A   26133.19295591  .00001727  00000+0  10526-3 0  9998
2 45602  97.4863 126.2937 0008426 335.3051  24.7775 15.11654353329556
XINGYUN-2 02            
1 45603U 20028B   26133.23165722  .00001641  00000+0  10088-3 0  9994
2 45603  97.5081 139.8417 0012124  38.9884 321.2218 15.11389770329558
HAIYANG-1D              
1 45721U 20036A   26133.15935536  .00000423  00000+0  16632-3 0  9991
2 45721  98.4535  75.6036 0001477 248.5065 111.5963 14.34162280309954
M2 PATHFINDER           
1 45727U 20037E   26132.99881347  .00001650  00000+0  12229-3 0  9990
2 45727  97.8165 323.8372 0010104 272.1142  87.8927 15.04519478320208
GAOFEN DUOMO (GFDM)     
1 45856U 20042A   26133.17921444 -.00000148  00000+0 -14144-4 0  9995
2 45856  97.7768 194.3351 0010851 178.6641 181.4600 14.76827811315844
ZIYUAN 3-03 (ZY 3-03)   
1 45939U 20051A   26133.19420509  .00003260  00000+0  14793-3 0  9990
2 45939  97.2852 202.0463 0007088  77.3172 282.8856 15.21477808322023
NEMO-HD                 
1 46277U 20061F   26133.13750301  .00007147  00000+0  15940-3 0  9990
2 46277  97.1945 195.4595 0002345 123.0450 237.1024 15.43870748316578
NAPA-1                  
1 46320U 20061BA  26133.20217966  .00041646  00000+0  44712-3 0  9993
2 46320  97.2492 206.3511 0001777 142.2354 217.9030 15.63679975316269
JILIN-1 GAOFEN 3E       
1 46457U 20065D   26133.16898811  .00032056  00000+0  40024-3 0  9994
2 46457  97.2296 185.0693 0009666 285.5254  74.4935 15.59749768314295
JILIN-1 GAOFEN 3F       
1 46458U 20065E   26133.13934894  .00031978  00000+0  43316-3 0  9993
2 46458  97.2251 182.5263 0011238 273.4901  86.5069 15.57560133314247
JILIN-1 GAOFEN 3G       
1 46459U 20065F   26133.17785992  .00046232  00000+0  45973-3 0  9991
2 46459  97.2325 188.8547 0012347 171.1766 188.9714 15.65509458314458
JILIN-1 GAOFEN 3H       
1 46460U 20065G   26133.08500830  .00042580  00000+0  46755-3 0  9990
2 46460  97.2271 185.2694 0009135 118.9115 241.3061 15.63048600314399
HAIYANG-2C              
1 46469U 20066A   26133.17509473  .00000055  00000+0  12328-3 0  9992
2 46469  65.9977 302.4568 0010187 240.5051 119.5002 13.83372233284654
HJ-2A                   
1 46478U 20067A   26133.19801201  .00000506  00000+0  79610-4 0  9998
2 46478  97.8825 212.3944 0004158  39.3722 320.7790 14.76566611303095
HJ-2B                   
1 46479U 20067B   26133.16636888 -.00000224  00000+0 -25087-4 0  9991
2 46479  97.8887 213.3593 0001338  73.6666 286.4691 14.76509188303094
GONETS-M 17             
1 46486U 20068A   26133.11231330 -.00000135  00000+0 -10499-2 0  9998
2 46486  82.5020   9.3244 0023257 110.3273 250.0308 12.42871245254808
GONETS-M 18             
1 46487U 20068B   26133.15646477 -.00000011  00000+0 -15002-3 0  9994
2 46487  82.4973   8.4283 0020607 106.4983 253.8362 12.42870839254795
GONETS-M 19             
1 46488U 20068C   26133.13240728 -.00000024  00000+0 -24510-3 0  9990
2 46488  82.4998   8.8872 0014163 120.1031 240.1454 12.42890925254898
DEKART                  
1 46493U 20068H   26133.17915778  .00008409  00000+0  23807-3 0  9995
2 46493  97.8754 139.9658 0010599  57.9204 302.3066 15.36518705310397
NORBI                   
1 46494U 20068J   26133.17834634  .00015283  00000+0  30490-3 0  9991
2 46494  97.8648 146.1002 0007558  42.3520 317.8310 15.46935863310799
